NORAD_CAT_ID,OBJECT_NAME,OBJECT_TYPE,EPOCH,MEAN_MOTION,ECCENTRICITY,INCLINATION,RA_OF_ASC_NODE,ARG_OF_PERICENTER,MEAN_ANOMALY,BSTAR,MEAN_MOTION_DOT,MEAN_MOTION_DDOT,TLE_LINE0,TLE_LINE1,TLE_LINE2,SEMIMAJOR_AXIS,PERIOD,APOGEE,PERIGEE,DECAYED
51778.0,STARLINK-3615,PAYLOAD,2022-04-23 14:00:01,15.73203375,0.000237,53.2167,221.4897,20.2202,235.7592,-0.0001014,-0.00014831,0.0,0 STARLINK-3615,1 51778U 22017L   22113.58334491 -.00014831  00000-0 -10140-3 0  9994,2 51778  53.2167 221.4897 0002370  20.2202 235.7592 15.73203375 10209,6727.886,91.533,351.345,348.156,0.0
51778.0,STARLINK-3615,PAYLOAD,2022-04-24 06:00:00,15.73198549,0.0002282,53.2168,218.1884,20.9707,52.90600000000001,0.00028996,0.00040269,0.0,0 STARLINK-3615,1 51778U 22017L   22114.25001157  .00040269  00000-0  28996-3 0  9999,2 51778  53.2168 218.1884 0002282  20.9707  52.9060 15.73198549 10315,6727.899,91.533,351.3,348.22900000000016,0.0
51778.0,STARLINK-3615,PAYLOAD,2022-04-24 14:00:01,15.73233324,0.0002597,53.217,216.5411,20.2406,142.555,-0.00041278,-0.00058246,0.0,0 STARLINK-3615,1 51778U 22017L   22114.58334491 -.00058246  00000-0 -41278-3 0  9999,2 51778  53.2170 216.5411 0002597  20.2406 142.5550 15.73233324 10360,6727.8,91.531,351.412,347.918,0.0
51778.0,STARLINK-3615,PAYLOAD,2022-04-25 14:00:01,15.73211103,0.0002826,53.2168,211.5929,22.3502,47.3299,0.00038155,0.000533,0.0,0 STARLINK-3615,1 51778U 22017L   22115.58334491  .00053300  00000-0  38155-3 0  9994,2 51778  53.2168 211.5929 0002826  22.3502  47.3299 15.73211103 10522,6727.864000000001,91.533,351.63,347.827,0.0
51778.0,STARLINK-3615,PAYLOAD,2022-04-25 22:00:00,15.73307389,0.0002778,53.2165,209.9424,21.3788,137.2729,-0.0001965,-0.00028241,0.0,0 STARLINK-3615,1 51778U 22017L   22115.91667824 -.00028241  00000-0 -19650-3 0  9997,2 51778  53.2165 209.9424 0002778  21.3788 137.2729 15.73307389 10575,6727.589,91.527,351.3230000000001,347.585,0.0
51778.0,STARLINK-3615,PAYLOAD,2022-04-26 14:00:01,15.73186474,0.000296,53.2172,206.644,21.0604,315.6938,-0.00080088,-0.0011151,0.0,0 STARLINK-3615,1 51778U 22017L   22116.58335648 -.00111510  00000-0 -80088-3 0  9992,2 51778  53.2172 206.6440 0002960  21.0604 315.6938 15.73186474 10688,6727.934,91.534,351.79,347.807,0.0
51778.0,STARLINK-3615,PAYLOAD,2022-04-26 22:00:00,15.73099338,0.0002868,53.2171,204.9937,16.1605,49.3967,0.00010639,0.00014273,0.0,0 STARLINK-3615,1 51778U 22017L   22116.91667824  .00014273  00000-0  10639-3 0  9994,2 51778  53.2171 204.9937 0002868  16.1605  49.3967 15.73099338 10733,6728.182,91.539,351.977,348.11800000000005,0.0
51778.0,STARLINK-3615,PAYLOAD,2022-04-27 06:00:00,15.73157471,0.0002771,53.2172,203.3437,16.6733,137.7156,-0.00019646,-0.00028057,0.0,0 STARLINK-3615,1 51778U 22017L   22117.25001157 -.00028057  00000-0 -19646-3 0  9997,2 51778  53.2172 203.3437 0002771  16.6733 137.7156 15.73157471 10782,6728.016,91.536,351.746,348.017,0.0
51778.0,STARLINK-3615,PAYLOAD,2022-04-27 14:00:01,15.73097537,0.0003099,53.2169,201.6966,13.3464,229.9737,0.0004993,0.0006974,0.0,0 STARLINK-3615,1 51778U 22017L   22117.58335648  .00069740  00000-0  49930-3 0  9999,2 51778  53.2169 201.6966 0003099  13.3464 229.9737 15.73097537  3704,6728.187,91.539,352.13699999999994,347.967,0.0
51778.0,STARLINK-3615,PAYLOAD,2022-04-27 22:00:00,15.73179663,0.0002995,53.2166,200.046,12.8862,319.224,0.00028033,0.00038875,0.0,0 STARLINK-3615,1 51778U 22017L   22117.91667824  .00038875  00000-0  28033-3 0  9996,2 51778  53.2166 200.0460 0002995  12.8862 319.2240 15.73179663 10894,6727.953,91.534,351.833,347.80300000000005,0.0
51778.0,STARLINK-3615,PAYLOAD,2022-04-28 14:00:01,15.73219946,0.0003239,53.2171,196.7484,11.7475,138.2716,0.00018271,0.00025124,0.0,0 STARLINK-3615,1 51778U 22017L   22118.58334491  .00025124  00000-0  18271-3 0  9997,2 51778  53.2171 196.7484 0003239  11.7475 138.2716 15.73219946  3716,6727.8380000000025,91.532,351.88199999999995,347.524,0.0
51778.0,STARLINK-3615,PAYLOAD,2022-04-29 06:00:00,15.73204432,0.0003166,53.2168,193.4476,16.4286,311.5537,-0.00025702,-0.00036555,0.0,0 STARLINK-3615,1 51778U 22017L   22119.25001157 -.00036555  00000-0 -25702-3 0  9991,2 51778  53.2168 193.4476 0003166  16.4286 311.5537 15.73204432 11101,6727.8830000000025,91.533,351.87800000000016,347.617,0.0
51778.0,STARLINK-3615,PAYLOAD,2022-04-29 14:00:01,15.73163676,0.0003437,53.2164,191.8003,14.7671,42.1295,-0.00015589,-0.00022416,0.0,0 STARLINK-3615,1 51778U 22017L   22119.58334491 -.00022416  00000-0 -15589-3 0  9990,2 51778  53.2164 191.8003 0003437  14.7671  42.1295 15.73163676  3704,6727.999,91.535,352.176,347.551,0.0
51778.0,STARLINK-3615,PAYLOAD,2022-04-29 22:00:00,15.73145704,0.0003285,53.2159,190.1492,11.7229,134.0804,0.0001675999999999,0.00022914,0.0,0 STARLINK-3615,1 51778U 22017L   22119.91667824  .00022914  00000-0  16760-3 0  9999,2 51778  53.2159 190.1492 0003285  11.7229 134.0804 15.73145704  3708,6728.05,91.536,352.125,347.705,0.0
51778.0,STARLINK-3615,PAYLOAD,2022-04-30 06:00:00,15.73190794,0.0003242,53.2161,188.4996,15.537,219.1183,-0.00028659,-0.00040647,0.0,0 STARLINK-3615,1 51778U 22017L   22120.25001157 -.00040647  00000-0 -28659-3 0  9994,2 51778  53.2161 188.4996 0003242  15.5370 219.1183 15.73190794 11255,6727.920999999999,91.534,351.968,347.605,0.0
51778.0,STARLINK-3615,PAYLOAD,2022-04-30 14:00:01,15.73114947,0.0003616,53.2161,186.8523,16.5323,307.0127,0.00070936,0.00099782,0.0,0 STARLINK-3615,1 51778U 22017L   22120.58334491  .00099782  00000-0  70936-3 0  9997,2 51778  53.2161 186.8523 0003616  16.5323 307.0127 15.73114947  3686,6728.138000000001,91.538,352.436,347.57,0.0
51778.0,STARLINK-3615,PAYLOAD,2022-04-30 22:00:00,15.73238012,0.0003432,53.2159,185.2011,13.9546,38.4918,-0.0005384,-0.00075659,0.0,0 STARLINK-3615,1 51778U 22017L   22120.91667824 -.00075659  00000-0 -53840-3 0  9997,2 51778  53.2159 185.2011 0003432  13.9546  38.4918 15.73238012 11369,6727.7869999999975,91.531,351.961,347.343,0.0
51778.0,STARLINK-3615,PAYLOAD,2022-05-01 14:00:01,15.73131261,0.0003693,53.2152,181.9042,11.0551,219.193,0.00072193,0.00101657,0.0,0 STARLINK-3615,1 51778U 22017L   22121.58334491  .00101657  00000-0  72193-3 0  9990,2 51778  53.2152 181.9042 0003693  11.0551 219.1930 15.73131261 11464,6728.090999999999,91.537,352.441,347.471,0.0
51778.0,STARLINK-3615,PAYLOAD,2022-05-01 22:00:01,15.732284900000002,0.0003433,53.2148,180.2527,10.2902,308.934,-0.00030852,-0.00043766,0.0,0 STARLINK-3615,1 51778U 22017L   22121.91668981 -.00043766  00000-0 -30852-3 0  9995,2 51778  53.2148 180.2527 0003433  10.2902 308.9340 15.73228490  3703,6727.814,91.532,351.98900000000015,347.369,0.0
51778.0,STARLINK-3615,PAYLOAD,2022-05-02 06:00:00,15.73198215,0.0003437,53.2149,178.6033,10.0902,37.9862,0.00024337,0.00033676,0.0,0 STARLINK-3615,1 51778U 22017L   22122.25001157  .00033676  00000-0  24337-3 0  9997,2 51778  53.2149 178.6033 0003437  10.0902  37.9862 15.73198215 11572,6727.9,91.533,352.07800000000015,347.45300000000015,0.0
51778.0,STARLINK-3615,PAYLOAD,2022-05-02 14:00:01,15.73197761,0.0003716,53.215,176.9557,8.6584,128.3422,0.00043156,0.00060393,0.0,0 STARLINK-3615,1 51778U 22017L   22122.58334491  .00060393  00000-0  43156-3 0  9999,2 51778  53.2150 176.9557 0003716   8.6584 128.3422 15.73197761  3691,6727.901999999999,91.533,352.267,347.266,0.0
51778.0,STARLINK-3615,PAYLOAD,2022-05-02 22:00:01,15.73202077,0.0003583,53.215,175.3041,7.2961,218.7437,0.00022148,0.00030585,0.0,0 STARLINK-3615,1 51778U 22017L   22122.91668981  .00030585  00000-0  22148-3 0  9998,2 51778  53.2150 175.3041 0003583   7.2961 218.7437 15.73202077 11672,6727.889,91.533,352.165,347.344,0.0
51778.0,STARLINK-3615,PAYLOAD,2022-05-03 14:00:01,15.73207125,0.0003808,53.2141,172.0069,5.5815,38.3286,0.0002797,0.00038838,0.0,0 STARLINK-3615,1 51778U 22017L   22123.58334491  .00038838  00000-0  27970-3 0  9995,2 51778  53.2141 172.0069 0003808   5.5815  38.3286 15.73207125  3707,6727.875,91.533,352.302,347.17800000000005,0.0
51778.0,STARLINK-3615,PAYLOAD,2022-05-03 22:00:00,15.73209187,0.0003577,53.214,170.3552,2.3271,130.5465,-5.8173e-05,-8.786e-05,0.0,0 STARLINK-3615,1 51778U 22017L   22123.91667824 -.00008786  00000-0 -58173-4 0  9992,2 51778  53.2140 170.3552 0003577   2.3271 130.5465 15.73209187 11835,6727.869000000002,91.533,352.141,347.327,0.0
51778.0,STARLINK-3615,PAYLOAD,2022-05-04 14:00:01,15.73241629,0.0003895,53.2147,167.0552,3.9672,306.8161,-0.00019394,-0.00027814,0.0,0 STARLINK-3615,1 51778U 22017L   22124.58334491 -.00027814  00000-0 -19394-3 0  9991,2 51778  53.2147 167.0552 0003895   3.9672 306.8161 15.73241629 11939,6727.776,91.531,352.26199999999994,347.021,0.0
51778.0,STARLINK-3615,PAYLOAD,2022-05-04 20:00:01,15.73451623,0.000371,53.2155,165.8089,1.7967,285.7503,-0.0049146,-0.0064728,0.0,0 STARLINK-3615,1 51778U 22017L   22124.83335648 -.00647280  00000-0 -49146-2 0  9996,2 51778  53.2155 165.8089 0003710   1.7967 285.7503 15.73451623 11974,6727.178000000001,91.519,351.539,346.547,0.0
51778.0,STARLINK-3615,PAYLOAD,2022-05-04 22:00:01,15.73378186,0.0003796,53.2159,165.3939,1.8884,37.9287,-0.0052995,-0.00692094,0.0,0 STARLINK-3615,1 51778U 22017L   22124.91668981 -.00692094  00000-0 -52995-2 0  9993,2 51778  53.2159 165.3939 0003796   1.8884  37.9287 15.73378186  3700,6727.387,91.523,351.806,346.6980000000001,0.0
51778.0,STARLINK-3615,PAYLOAD,2022-05-05 06:00:00,15.73044045,0.0003942,53.2169,163.7362,6.7025,121.8389,-0.0037577,-0.00495203,0.0,0 STARLINK-3615,1 51778U 22017L   22125.25001157 -.00495203  00000-0 -37577-2 0  9999,2 51778  53.2169 163.7362 0003942   6.7025 121.8389 15.73044045 12044,6728.34,91.542,352.857,347.55300000000005,0.0
51778.0,STARLINK-3615,PAYLOAD,2022-05-05 14:00:01,15.72686832,0.000373,53.2172,162.084,5.2828,211.8042,-0.0056485,-0.00714121,0.0,0 STARLINK-3615,1 51778U 22017L   22125.58334491 -.00714121  00000-0 -56485-2 0  9997,2 51778  53.2172 162.0840 0003730   5.2828 211.8042 15.72686832  3716,6729.359,91.563,353.7340000000001,348.714,0.0
